LEMUR-2-DEMBITZ         
1 42842U 17042T   26068.47492167  .00020231  00000+0  76561-3 0  9991
2 42842  97.3807 250.9241 0006961  17.1421 343.0051 15.26947128473114
STARLINK-32804          
1 62846U 25019T   26068.44852348  .00022901  00000+0  83861-3 0  9995
2 62846  43.0083  90.3825 0002822 284.4195  75.6344 15.27599780 62213
